[{"OBJECT_NAME":"COSMOS 2588","OBJECT_ID":"2025-109A","EPOCH":"2026-03-09T19:28:59.107008","MEAN_MOTION":15.29122656,"ECCENTRICITY":0.0005019,"INCLINATION":72.9704,"RA_OF_ASC_NODE":73.5401,"ARG_OF_PERICENTER":308.678,"MEAN_ANOMALY":51.3966,"EPHEMERIS_TYPE":0,"CLASSIFICATION_TYPE":"U","NORAD_CAT_ID":64095,"ELEMENT_SET_NO":999,"REV_AT_EPOCH":4442,"BSTAR":0.00032611,"MEAN_MOTION_DOT":9.169e-5,"MEAN_MOTION_DDOT":0},{"OBJECT_NAME":"STARLINK-34233","OBJECT_ID":"2025-113C","EPOCH":"2026-03-09T11:42:02.147040","MEAN_MOTION":15.30204845,"ECCENTRICITY":0.00012078,"INCLINATION":53.158,"RA_OF_ASC_NODE":92.1112,"ARG_OF_PERICENTER":79.4935,"MEAN_ANOMALY":280.6202,"EPHEMERIS_TYPE":0,"CLASSIFICATION_TYPE":"U","NORAD_CAT_ID":64172,"ELEMENT_SET_NO":999,"REV_AT_EPOCH":4503,"BSTAR":0.00049127494,"MEAN_MOTION_DOT":0.00014221,"MEAN_MOTION_DDOT":0}]
