COSMOS 2588             
1 64095U 25109A   26068.81179522  .00009169  00000+0  32611-3 0  9998
2 64095  72.9704  73.5401 0005019 308.6780  51.3966 15.29122656 44425
STARLINK-34233          
1 64172U 25113C   26068.48752485  .00014221  00000+0  49127-3 0  9992
2 64172  53.1580  92.1112 0001207  79.4935 280.6202 15.30204845 45031
